{
  "type": "FeatureCollection",
  "features": [
    {
      "type": "Feature",
      "properties": {
        "norad_id": 34614,
        "name": "COSMOS 2251 DEB",
        "group": "cosmos-2251-debris",
        "lat": 64.53102821907261,
        "lon": 135.55564786486522,
        "alt_km": 902.0711906945335,
        "timestamp": "2025-12-07T16:44:04.307593+00:00",
        "meta_object_name": "COSMOS 2251 DEB",
        "meta_object_id": "1993-036WK",
        "meta_epoch": "2025-12-06T01:24:11.041632",
        "meta_mean_motion": 14.17216648,
        "meta_eccentricity": 0.01971679,
        "meta_inclination": 73.8748,
        "meta_ra_of_asc_node": 355.9025,
        "meta_arg_of_pericenter": 350.8037,
        "meta_mean_anomaly": 39.1163,
        "meta_ephemeris_type": 0,
        "meta_classification_type": "U",
        "meta_norad_cat_id": 34614,
        "meta_element_set_no": 999,
        "meta_rev_at_epoch": 84672,
        "meta_bstar": 0.0078134929,
        "meta_mean_motion_dot": 0.00019106,
        "meta_mean_motion_ddot": 0,
        "tle_line1": "1 34614U 93036WK  25340.05846113  .00019106  00000+0  78135-2 0  9993",
        "tle_line2": "2 34614  73.8748 355.9025 0197167 350.8037  39.1163 14.17216648846723"
      },
      "geometry": {
        "type": "Point",
        "coordinates": [
          135.55564786486522,
          64.53102821907261
        ]
      }
    },
    {
      "type": "Feature",
      "properties": {
        "norad_id": 34615,
        "name": "COSMOS 2251 DEB",
        "group": "cosmos-2251-debris",
        "lat": 71.50703743629276,
        "lon": 63.184130805940164,
        "alt_km": 1154.2310787148717,
        "timestamp": "2025-12-07T16:44:04.307603+00:00",
        "meta_object_name": "COSMOS 2251 DEB",
        "meta_object_id": "1993-036WL",
        "meta_epoch": "2025-12-06T09:02:40.664256",
        "meta_mean_motion": 13.52199874,
        "meta_eccentricity": 0.04018612,
        "meta_inclination": 74.0049,
        "meta_ra_of_asc_node": 304.3467,
        "meta_arg_of_pericenter": 212.9074,
        "meta_mean_anomaly": 305.531,
        "meta_ephemeris_type": 0,
        "meta_classification_type": "U",
        "meta_norad_cat_id": 34615,
        "meta_element_set_no": 999,
        "meta_rev_at_epoch": 82729,
        "meta_bstar": 0.00029825034,
        "meta_mean_motion_dot": 3.04e-06,
        "meta_mean_motion_ddot": 0,
        "tle_line1": "1 34615U 93036WL  25340.37685954  .00000304  00000+0  29825-3 0  9996",
        "tle_line2": "2 34615  74.0049 304.3467 0401861 212.9074 305.5310 13.52199874827291"
      },
      "geometry": {
        "type": "Point",
        "coordinates": [
          63.184130805940164,
          71.50703743629276
        ]
      }
    },
    {
      "type": "Feature",
      "properties": {
        "norad_id": 34619,
        "name": "COSMOS 2251 DEB",
        "group": "cosmos-2251-debris",
        "lat": 44.98067988695576,
        "lon": 13.016128385557831,
        "alt_km": 740.3640537101192,
        "timestamp": "2025-12-07T16:44:04.307614+00:00",
        "meta_object_name": "COSMOS 2251 DEB",
        "meta_object_id": "1993-036WQ",
        "meta_epoch": "2025-12-06T22:05:39.052032",
        "meta_mean_motion": 14.64623272,
        "meta_eccentricity": 0.00946432,
        "meta_inclination": 74.0443,
        "meta_ra_of_asc_node": 211.121,
        "meta_arg_of_pericenter": 307.3164,
        "meta_mean_anomaly": 51.9405,
        "meta_ephemeris_type": 0,
        "meta_classification_type": "U",
        "meta_norad_cat_id": 34619,
        "meta_element_set_no": 999,
        "meta_rev_at_epoch": 89213,
        "meta_bstar": 0.0004116498,
        "meta_mean_motion_dot": 2.302e-05,
        "meta_mean_motion_ddot": 0,
        "tle_line1": "1 34619U 93036WQ  25340.92059088  .00002302  00000+0  41165-3 0  9995",
        "tle_line2": "2 34619  74.0443 211.1210 0094643 307.3164  51.9405 14.64623272892139"
      },
      "geometry": {
        "type": "Point",
        "coordinates": [
          13.016128385557831,
          44.98067988695576
        ]
      }
    },
    {
      "type": "Feature",
      "properties": {
        "norad_id": 34620,
        "name": "COSMOS 2251 DEB",
        "group": "cosmos-2251-debris",
        "lat": -61.520370180003695,
        "lon": -162.83273580360796,
        "alt_km": 684.2899992396033,
        "timestamp": "2025-12-07T16:44:04.307624+00:00",
        "meta_object_name": "COSMOS 2251 DEB",
        "meta_object_id": "1993-036WR",
        "meta_epoch": "2025-12-06T17:50:17.888640",
        "meta_mean_motion": 14.4894975,
        "meta_eccentricity": 0.00814955,
        "meta_inclination": 74.0512,
        "meta_ra_of_asc_node": 230.7653,
        "meta_arg_of_pericenter": 268.5658,
        "meta_mean_anomaly": 90.6165,
        "meta_ephemeris_type": 0,
        "meta_classification_type": "U",
        "meta_norad_cat_id": 34620,
        "meta_element_set_no": 999,
        "meta_rev_at_epoch": 86740,
        "meta_bstar": 0.003995827,
        "meta_mean_motion_dot": 0.00015797,
        "meta_mean_motion_ddot": 0,
        "tle_line1": "1 34620U 93036WR  25340.74326260  .00015797  00000+0  39958-2 0  9994",
        "tle_line2": "2 34620  74.0512 230.7653 0081495 268.5658  90.6165 14.48949750867402"
      },
      "geometry": {
        "type": "Point",
        "coordinates": [
          -162.83273580360796,
          -61.520370180003695
        ]
      }
    },
    {
      "type": "Feature",
      "properties": {
        "norad_id": 34622,
        "name": "COSMOS 2251 DEB",
        "group": "cosmos-2251-debris",
        "lat": 57.291361277770996,
        "lon": -17.481652466756405,
        "alt_km": 742.7613172712627,
        "timestamp": "2025-12-07T16:44:04.307635+00:00",
        "meta_object_name": "COSMOS 2251 DEB",
        "meta_object_id": "1993-036WT",
        "meta_epoch": "2025-12-06T22:01:20.526816",
        "meta_mean_motion": 14.22006336,
        "meta_eccentricity": 0.01041451,
        "meta_inclination": 74.0418,
        "meta_ra_of_asc_node": 317.4575,
        "meta_arg_of_pericenter": 41.3807,
        "meta_mean_anomaly": 349.562,
        "meta_ephemeris_type": 0,
        "meta_classification_type": "U",
        "meta_norad_cat_id": 34622,
        "meta_element_set_no": 999,
        "meta_rev_at_epoch": 86377,
        "meta_bstar": 0.0017964474,
        "meta_mean_motion_dot": 4.173e-05,
        "meta_mean_motion_ddot": 0,
        "tle_line1": "1 34622U 93036WT  25340.91759869  .00004173  00000+0  17964-2 0  9999",
        "tle_line2": "2 34622  74.0418 317.4575 0104145  41.3807 349.5620 14.22006336863770"
      },
      "geometry": {
        "type": "Point",
        "coordinates": [
          -17.481652466756405,
          57.291361277770996
        ]
      }
    },
    {
      "type": "Feature",
      "properties": {
        "norad_id": 34626,
        "name": "COSMOS 2251 DEB",
        "group": "cosmos-2251-debris",
        "lat": 53.15740946101783,
        "lon": -3.8599712364085477,
        "alt_km": 630.6867334613107,
        "timestamp": "2025-12-07T16:44:04.307645+00:00",
        "meta_object_name": "COSMOS 2251 DEB",
        "meta_object_id": "1993-036WX",
        "meta_epoch": "2025-12-06T18:26:38.941728",
        "meta_mean_motion": 14.72086533,
        "meta_eccentricity": 0.00262705,
        "meta_inclination": 74.0481,
        "meta_ra_of_asc_node": 335.5025,
        "meta_arg_of_pericenter": 65.5949,
        "meta_mean_anomaly": 110.8564,
        "meta_ephemeris_type": 0,
        "meta_classification_type": "U",
        "meta_norad_cat_id": 34626,
        "meta_element_set_no": 999,
        "meta_rev_at_epoch": 89056,
        "meta_bstar": 0.0016445439,
        "meta_mean_motion_dot": 0.00010384,
        "meta_mean_motion_ddot": 0,
        "tle_line1": "1 34626U 93036WX  25340.76850627  .00010384  00000+0  16445-2 0  9994",
        "tle_line2": "2 34626  74.0481 335.5025 0026270  65.5949 110.8564 14.72086533890567"
      },
      "geometry": {
        "type": "Point",
        "coordinates": [
          -3.8599712364085477,
          53.15740946101783
        ]
      }
    },
    {
      "type": "Feature",
      "properties": {
        "norad_id": 34634,
        "name": "COSMOS 2251 DEB",
        "group": "cosmos-2251-debris",
        "lat": 17.120930789483204,
        "lon": -140.5332553658522,
        "alt_km": 676.2952017747057,
        "timestamp": "2025-12-07T16:44:04.307656+00:00",
        "meta_object_name": "COSMOS 2251 DEB",
        "meta_object_id": "1993-036XF",
        "meta_epoch": "2025-12-06T22:38:17.773728",
        "meta_mean_motion": 14.55631861,
        "meta_eccentricity": 0.00444854,
        "meta_inclination": 74.0529,
        "meta_ra_of_asc_node": 45.9466,
        "meta_arg_of_pericenter": 155.039,
        "meta_mean_anomaly": 17.338,
        "meta_ephemeris_type": 0,
        "meta_classification_type": "U",
        "meta_norad_cat_id": 34634,
        "meta_element_set_no": 999,
        "meta_rev_at_epoch": 88697,
        "meta_bstar": 0.00064867053,
        "meta_mean_motion_dot": 2.841e-05,
        "meta_mean_motion_ddot": 0,
        "tle_line1": "1 34634U 93036XF  25340.94326127  .00002841  00000+0  64867-3 0  9997",
        "tle_line2": "2 34634  74.0529  45.9466 0044485 155.0390  17.3380 14.55631861886971"
      },
      "geometry": {
        "type": "Point",
        "coordinates": [
          -140.5332553658522,
          17.120930789483204
        ]
      }
    }
  ]
}